[{"OBJECT_NAME":"STARLINK-3923","OBJECT_ID":"2022-049AQ","EPOCH":"2026-03-09T08:32:29.113728","MEAN_MOTION":15.08836628,"ECCENTRICITY":0.00015344,"INCLINATION":53.2172,"RA_OF_ASC_NODE":60.6182,"ARG_OF_PERICENTER":73.975,"MEAN_ANOMALY":286.1411,"EPHEMERIS_TYPE":0,"CLASSIFICATION_TYPE":"U","NORAD_CAT_ID":52489,"ELEMENT_SET_NO":999,"REV_AT_EPOCH":21220,"BSTAR":-2.2038283e-5,"MEAN_MOTION_DOT":-6.39e-6,"MEAN_MOTION_DDOT":0},{"OBJECT_NAME":"CZ-4B DEB","OBJECT_ID":"2008-053G","EPOCH":"2026-03-08T12:59:24.951264","MEAN_MOTION":14.89391484,"ECCENTRICITY":0.01030319,"INCLINATION":97.6151,"RA_OF_ASC_NODE":98.188,"ARG_OF_PERICENTER":41.7816,"MEAN_ANOMALY":319.121,"EPHEMERIS_TYPE":0,"CLASSIFICATION_TYPE":"U","NORAD_CAT_ID":35571,"ELEMENT_SET_NO":999,"REV_AT_EPOCH":91755,"BSTAR":0.0016985241,"MEAN_MOTION_DOT":0.00017804,"MEAN_MOTION_DDOT":0}]
